     2.11           N: GPS NAV DATA                         RINEX VERSION / TYPE
teqc  2019Feb25                         20221121 12:27:16UTCPGM / RUN BY / DATE
OSX ker:10.11.6|Core i5|gcc 4.3 -m64|OSX ker:10.10+|=+      COMMENT
    7.4506D-09  1.4901D-08 -5.9605D-08 -1.1921D-07          ION ALPHA
    7.9872D+04  1.6384D+04 -1.3107D+05 -1.3107D+05          ION BETA
   -6.519258022308D-09-2.220446049250D-14   233472     1549 DELTA-UTC: A0,A1,T,W
                                                            END OF HEADER
29 09  9 14  4  0  0.0 5.726143717766D-05 3.410605131648D-12 0.000000000000D+00
    8.000000000000D+01-5.281250000000D+00 4.415898225600D-09-2.703801628076D+00
   -3.576278686523D-07 3.108001197688D-03 1.005269587040D-05 5.153613189697D+03
    1.008000000000D+05 9.313225746155D-09 2.862866021610D+00 2.793967723846D-08
    9.605116255303D-01 1.808125000000D+02-1.274571737520D+00-7.854612890440D-09
    5.021637742797D-10 1.000000000000D+00 1.549000000000D+03 0.000000000000D+00
    2.000000000000D+00 0.000000000000D+00-8.847564458847D-09 8.000000000000D+01
    9.361800000000D+04 4.000000000000D+00
25 09  9 14  3 59 44.0 5.934885703027D-04 1.477928890381D-11 0.000000000000D+00
    1.900000000000D+01-1.937500000000D+00 4.389111395536D-09 2.748915056306D+00
   -9.313225746155D-09 1.124117837753D-02 1.680105924606D-06 5.153643264771D+03
    1.007840000000D+05 5.587935447693D-08 6.476338029703D-01 6.705522537231D-08
    9.709182893182D-01 3.529062500000D+02-1.212363113824D+00-8.138553289126D-09
   -8.464638300447D-11 1.000000000000D+00 1.549000000000D+03 0.000000000000D+00
    2.000000000000D+00 0.000000000000D+00-7.450580596924D-09 1.900000000000D+01
    9.361800000000D+04 4.000000000000D+00
16 09  9 14  3 59 44.0 1.296075060964D-05-3.865352482535D-12 0.000000000000D+00
    1.400000000000D+01-1.124687500000D+02 4.044811339771D-09 2.111429164951D+00
   -5.735084414482D-06 5.296928458847D-03 8.771196007729D-06 5.153625417709D+03
    1.007840000000D+05-3.539025783539D-08 1.812054262053D+00 1.117587089539D-08
    9.692190265828D-01 2.150000000000D+02-2.750044739202D-01-7.833183426389D-09
   -9.464679956196D-11 1.000000000000D+00 1.549000000000D+03 0.000000000000D+00
    2.000000000000D+00 0.000000000000D+00-9.778887033463D-09 1.400000000000D+01
    9.547200000000D+04 4.000000000000D+00
 7 09  9 14  4  0  0.0 1.151254400611D-05-6.821210263297D-13 0.000000000000D+00
    5.000000000000D+01-2.071875000000D+01 4.494472927124D-09-1.773121580785D+00
   -1.063570380211D-06 3.112887963653D-03 2.026557922363D-06 5.153650497437D+03
    1.008000000000D+05-7.823109626770D-08 7.419084542765D-01 4.842877388000D-08
    9.687092010951D-01 3.455937500000D+02 2.941690853597D+00-8.355348033783D-09
    4.285892810353D-12 1.000000000000D+00 1.549000000000D+03 0.000000000000D+00
    2.000000000000D+00 0.000000000000D+00-1.071020960808D-08 5.000000000000D+01
    9.574200000000D+04 4.000000000000D+00
 8 09  9 14  4  0  0.0-2.211346291006D-04-1.477928890381D-12 0.000000000000D+00
    4.100000000000D+01-2.406250000000D+01 4.018024509706D-09-2.449528678279D+00
   -1.281499862671D-06 1.093169103842D-02 2.402812242508D-06 5.153624252319D+03
    1.008000000000D+05-2.011656761169D-07 8.045264990037D-01-1.862645149231D-09
    9.899092803235D-01 3.498125000000D+02 3.020923946522D+00-8.082122367123D-09
   -3.607293115380D-11 1.000000000000D+00 1.549000000000D+03 0.000000000000D+00
    2.800000000000D+00 0.000000000000D+00-3.725290298462D-09 4.100000000000D+01
    9.907200000000D+04 4.000000000000D+00
21 09  9 14  4  0  0.0-9.044539183378D-06-2.273736754432D-12 0.000000000000D+00
    7.500000000000D+01 1.162500000000D+01 5.524158674811D-09-2.727819183658D+00
    3.837049007416D-07 1.556072267704D-02 6.385147571564D-06 5.153750442505D+03
    1.008000000000D+05-2.980232238770D-08-2.383939486431D+00-3.632158041000D-07
    9.335672141360D-01 2.452812500000D+02-2.558825546726D+00-8.333918569731D-09
    6.643133856047D-11 1.000000000000D+00 1.549000000000D+03 0.000000000000D+00
    2.000000000000D+00 0.000000000000D+00-1.210719347000D-08 7.500000000000D+01
    9.961200000000D+04 4.000000000000D+00
15 09  9 14  4  0  0.0-3.181453794241D-04-1.136868377216D-12 0.000000000000D+00
    7.400000000000D+01 8.918750000000D+01 4.584119518407D-09 7.072603060363D-01
    4.488974809647D-06 1.680790912360D-03 7.761642336845D-06 5.153662040710D+03
    1.008000000000D+05-1.862645149231D-08-3.208705369287D-01-7.450580596924D-09
    9.559913871414D-01 2.243125000000D+02-5.187331154307D-01-8.149268021152D-09
   -8.928943354902D-11 1.000000000000D+00 1.549000000000D+03 0.000000000000D+00
    2.000000000000D+00 0.000000000000D+00-9.778887033463D-09 7.400000000000D+01
    1.006920000000D+05 4.000000000000D+00
 2 09  9 14  6  0  0.0 1.723021268845D-04 2.955857780762D-12 0.000000000000D+00
    8.800000000000D+01 1.506250000000D+01 5.419154300957D-09 9.652875571299D-01
    7.729977369308D-07 9.089274564758D-03 6.159767508507D-06 5.153698183060D+03
    1.080000000000D+05 1.844018697739D-07-2.414655186526D+00 1.173466444016D-07
    9.408660372013D-01 2.513437500000D+02 2.893573413793D+00-8.383920652519D-09
    6.678849629467D-11 1.000000000000D+00 1.549000000000D+03 0.000000000000D+00
    2.000000000000D+00 0.000000000000D+00-1.722946763039D-08 8.800000000000D+01
    1.008180000000D+05 4.000000000000D+00
10 09  9 14  6  0  0.0-2.352474257350D-05-9.094947017729D-13 0.000000000000D+00
    1.060000000000D+02 2.687500000000D+01 4.744126183327D-09 1.994903610120D+00
    1.447275280952D-06 8.615026134066D-03 1.019611954689D-05 5.153667924881D+03
    1.080000000000D+05-2.793967723846D-07-1.329301717724D+00-3.166496753693D-08
    9.564703216509D-01 1.818750000000D+02 6.264499533551D-01-8.029977337931D-09
   -4.410898017322D-10 1.000000000000D+00 1.549000000000D+03 0.000000000000D+00
    2.000000000000D+00 0.000000000000D+00-2.793967723846D-09 1.060000000000D+02
    1.008180000000D+05 4.000000000000D+00
 5 09  9 14  6  0  0.0-9.210128337145D-05 1.170974428533D-11 0.000000000000D+00
    9.200000000000D+01 2.846875000000D+01 4.649122226030D-09 1.907787610920D+00
    1.544132828712D-06 2.332531264983D-03 9.957700967789D-06 5.157146619797D+03
    1.080000000000D+05-1.229345798492D-07-1.356517839819D+00-5.587935447693D-08
    9.613793115015D-01 1.868750000000D+02 8.350688155109D-01-7.933544749698D-09
   -4.171602335410D-10 1.000000000000D+00 1.549000000000D+03 0.000000000000D+00
    2.800000000000D+00 0.000000000000D+00-9.313225746155D-09 9.200000000000D+01
    1.008180000000D+05 4.000000000000D+00
 7 09  9 14  6  0  0.0 1.150788739324D-05-6.821210263297D-13 0.000000000000D+00
    6.600000000000D+01-2.334375000000D+01 4.513045129302D-09-7.227446092597D-01
   -1.242384314537D-06 3.113186336122D-03 2.330169081688D-06 5.153651679993D+03
    1.080000000000D+05-1.676380634308D-08 7.418488740119D-01-8.754432201386D-08
    9.687087622197D-01 3.414375000000D+02 2.941508246311D+00-8.375706024632D-09
   -1.164334213479D-10 1.000000000000D+00 1.549000000000D+03 0.000000000000D+00
    2.000000000000D+00 0.000000000000D+00-1.071020960808D-08 6.600000000000D+01
    1.008180000000D+05 4.000000000000D+00
29 09  9 14  6  0  0.0 5.728611722589D-05 3.410605131648D-12 0.000000000000D+00
    8.100000000000D+01-1.031250000000D+01 4.321251426038D-09-1.653430363394D+00
   -4.153698682785D-07 3.107464523055D-03 1.017935574055D-05 5.153614501953D+03
    1.080000000000D+05-5.587935447693D-09 2.862809452030D+00 3.911554813385D-08
    9.605151789583D-01 1.834687500000D+02-1.274726818540D+00-7.867470568871D-09
    4.996636701403D-10 1.000000000000D+00 1.549000000000D+03 0.000000000000D+00
    2.000000000000D+00 0.000000000000D+00-8.847564458847D-09 8.100000000000D+01
    1.008180000000D+05 4.000000000000D+00
25 09  9 14  6  0  0.0 5.935956723988D-04 1.477928890381D-11 0.000000000000D+00
    2.000000000000D+01-5.781250000000D+00 4.382325398586D-09-2.481743809425D+00
   -2.440065145493D-07 1.124030235223D-02 2.026557922363D-06 5.153644849777D+03
    1.080000000000D+05 4.470348358154D-08 6.475750638836D-01 9.872019290924D-08
    9.709177260948D-01 3.471875000000D+02-1.212357921928D+00-8.142482024202D-09
   -7.643175511796D-11 1.000000000000D+00 1.549000000000D+03 0.000000000000D+00
    2.000000000000D+00 0.000000000000D+00-7.450580596924D-09 2.000000000000D+01
    1.008180000000D+05 4.000000000000D+00
 8 09  9 14  6  0  0.0-2.211453393102D-04-1.477928890381D-12 0.000000000000D+00
    4.200000000000D+01-3.190625000000D+01 4.064097857417D-09-1.399370601723D+00
   -1.715496182442D-06 1.093233772554D-02 2.440065145493D-06 5.153622858047D+03
    1.080000000000D+05-9.499490261078D-08 8.044675258501D-01-1.117587089539D-07
    9.899091384204D-01 3.476875000000D+02 3.020974823887D+00-8.155339702633D-09
    2.035799084918D-11 1.000000000000D+00 1.549000000000D+03 0.000000000000D+00
    2.800000000000D+00 0.000000000000D+00-3.725290298462D-09 4.200000000000D+01
    1.008180000000D+05 4.000000000000D+00
16 09  9 14  6  0  0.0 1.293281093240D-05-3.865352482535D-12 0.000000000000D+00
    2.700000000000D+01-1.044062500000D+02 4.131957826915D-09-3.119025666133D+00
   -5.446374416351D-06 5.297625786625D-03 8.413568139076D-06 5.153623378754D+03
    1.080000000000D+05 1.862645149231D-09 1.811997825600D+00 5.587935447693D-08
    9.692180537423D-01 2.229062500000D+02-2.751926212773D-01-7.877113827695D-09
   -1.296482575132D-10 1.000000000000D+00 1.549000000000D+03 0.000000000000D+00
    2.000000000000D+00 0.000000000000D+00-9.778887033463D-09 2.700000000000D+01
    1.008180000000D+05 4.000000000000D+00
